{
  "type": "FeatureCollection",
  "atlas": {
    "capa": "espacios-maritimos",
    "schema_version": "1.11.0",
    "verificado_a": "2026-08-06"
  },
  "features": [
    {
      "type": "Feature",
      "id": "espacios-maritimos:aguas-canarias-marruecos",
      "geometry": {
        "type": "Polygon",
        "coordinates": [
          [
            [
              -15.6,
              27.3
            ],
            [
              -13.85,
              27.1
            ],
            [
              -13.35,
              27.9
            ],
            [
              -12.6,
              28.55
            ],
            [
              -11.4,
              29.6
            ],
            [
              -13.95,
              29.75
            ],
            [
              -15.6,
              27.3
            ]
          ]
        ]
      },
      "properties": {
        "slug": "aguas-canarias-marruecos",
        "nombre": "Aguas entre Canarias y Marruecos, sin delimitación acordada",
        "categoria": "sin_delimitar",
        "descripcion": "El corredor entre el archipiélago canario y la costa africana no tiene delimitación acordada. Lo dicen las dos partes: Marruecos, ante la ONU, habla de «espacios marítimos que conciernen a Marruecos y España y que aún no han sido delimitados»; España responde que está abierta a delimitar con Marruecos conforme a la Convención.",
        "estado_registro": "vigente",
        "verif": "parcial",
        "geo_precision": "ilustrativa",
        "geo_fuente": "esquema trazado a mano del corredor entre el archipiélago y la costa africana, comprobado punto a punto contra la línea de costa del mapa base para que no pise tierra; ningún instrumento dibuja esta zona",
        "fecha_alta": "2026-08-06",
        "fecha_verificacion": "2026-08-06",
        "estado_juridico": "Sin delimitación acordada",
        "estado_juridico__v": "confirmado",
        "estado_juridico__f": "f2",
        "partes": [
          "España",
          "Marruecos"
        ],
        "claves": [
          {
            "k": "Lo que dice Marruecos",
            "v": "La presentación española «se refiere a la plataforma continental en espacios marítimos que conciernen a Marruecos y España y que aún no han sido delimitados», y Marruecos «rechaza todo acto destinado a delimitar unilateralmente la plataforma continental».",
            "verif": "confirmado",
            "fuente": "f2"
          },
          {
            "k": "Lo que dice España",
            "v": "La presentación «no constituye una delimitación unilateral de sus espacios marinos», y España «reitera su disposición a delimitar con Marruecos, Portugal o cualquier otro Estado ribereño sus espacios marinos».",
            "verif": "confirmado",
            "fuente": "f3"
          },
          {
            "k": "Lo que las leyes marroquíes NO contienen",
            "v": "Ni la ley 37-17 ni la 38-17 fijan una sola coordenada. La 37-17 remite las coordenadas de las líneas de base a un reglamento posterior («fixées par voie réglementaire»); la 38-17, en su artículo 11, dispone que la delimitación se haga «a fin de alcanzar un resultado equitativo, en particular con los Estados cuyas costas son adyacentes o están frente a las del Reino de Marruecos».",
            "verif": "confirmado",
            "fuente": "f4"
          },
          {
            "k": "En qué no están de acuerdo",
            "v": "Marruecos funda su objeción en que las 200 millas se miden desde las líneas de base de la Ley 44/2010, cuya interpretación de la Parte IV de la Convención (archipiélagos) tiene reservada. España responde que «la Ley 44/2010 no define líneas de base y no ha sido en modo alguno empleada»: las usadas son las del Real Decreto 2510/1977.",
            "verif": "confirmado",
            "fuente": "f3"
          }
        ],
        "fuentes": [
          {
            "id": "f2",
            "tipo": "primaria",
            "titulo": "Misión Permanente del Reino de Marruecos ante la ONU — Nota verbal NV/ATL/N°/114/2015 sobre la presentación española",
            "url": "https://www.un.org/Depts/los/clcs_new/submissions_files/esp77_14/mor_re_esp77_eng.pdf",
            "fecha": "2015-03-10",
            "archivo": "fuentes/2026-08-06_onu_nota-verbal-marruecos-plataforma-canarias.pdf"
          },
          {
            "id": "f3",
            "tipo": "primaria",
            "titulo": "Misión Permanente de España ante la ONU — Nota verbal n.º 076 MP/bcm, respuesta a la nota marroquí",
            "url": "https://www.un.org/Depts/los/clcs_new/submissions_files/esp77_14/prt_remar_esp77_spa.pdf",
            "fecha": "2015-04-22",
            "archivo": "fuentes/2026-08-06_onu_respuesta-espana-a-marruecos-clcs.pdf"
          },
          {
            "id": "f4",
            "tipo": "primaria",
            "titulo": "Reino de Marruecos — Boletín Oficial n.º 6870, edición de traducción oficial: dahires 1-20-02 y 1-20-03, leyes 37-17 y 38-17",
            "url": "https://www.sgg.gov.ma/Portals/0/BO/2020/BO_6870_Fr.pdf",
            "fecha": "2020-04-02",
            "archivo": "fuentes/2026-08-06_maroc_bo-6870-leyes-37-17-y-38-17.pdf"
          },
          {
            "id": "f9",
            "tipo": "hueco",
            "titulo": "Ningún instrumento dibuja esta zona. El perímetro es un esquema del corredor entre el archipiélago y la costa africana, trazado a mano: trazarlo con precisión sería dictar la delimitación que los dos Estados dejan a un acuerdo."
          }
        ],
        "nota": "El perímetro es lo ÚNICO de este registro que no sostiene un documento, y por eso lleva su hueco. Es un esquema del corredor: no delimita el alcance de la superposición de derechos, que se extiende mucho más al suroeste. Que la zona esté sin delimitar sí lo sostienen dos primarias enfrentadas, que es la forma más fuerte de sostenerlo — lo afirman las dos partes. Trazar aquí una línea mediana sería dictar el resultado que los propios instrumentos dejan a un acuerdo futuro (D5)."
      }
    },
    {
      "type": "Feature",
      "id": "espacios-maritimos:plataforma-continental-canarias",
      "geometry": {
        "type": "LineString",
        "coordinates": [
          [
            -20.68851,
            31.18832
          ],
          [
            -21.29513,
            31.99713
          ],
          [
            -21.30599,
            32.01103
          ],
          [
            -21.31713,
            32.02477
          ],
          [
            -21.32853,
            32.03836
          ],
          [
            -21.34021,
            32.05178
          ],
          [
            -21.35215,
            32.06503
          ],
          [
            -21.36434,
            32.07811
          ],
          [
            -21.3768,
            32.09101
          ],
          [
            -21.38951,
            32.10373
          ],
          [
            -21.40247,
            32.11627
          ],
          [
            -21.41568,
            32.12862
          ],
          [
            -21.42913,
            32.14079
          ],
          [
            -21.44283,
            32.15275
          ],
          [
            -21.45676,
            32.16452
          ],
          [
            -21.47092,
            32.17609
          ],
          [
            -21.48531,
            32.18746
          ],
          [
            -21.49992,
            32.19862
          ],
          [
            -21.51475,
            32.20957
          ],
          [
            -21.5298,
            32.2203
          ],
          [
            -21.54507,
            32.23082
          ],
          [
            -21.56053,
            32.24112
          ],
          [
            -21.57621,
            32.25119
          ],
          [
            -21.59208,
            32.26105
          ],
          [
            -21.60814,
            32.27067
          ],
          [
            -21.6244,
            32.28006
          ],
          [
            -21.64084,
            32.28922
          ],
          [
            -21.65746,
            32.29814
          ],
          [
            -21.67426,
            32.30682
          ],
          [
            -21.69123,
            32.31526
          ],
          [
            -21.70836,
            32.32346
          ],
          [
            -21.72566,
            32.33141
          ],
          [
            -21.74311,
            32.33912
          ],
          [
            -21.76072,
            32.34657
          ],
          [
            -21.77847,
            32.35377
          ],
          [
            -21.79636,
            32.36072
          ],
          [
            -21.81439,
            32.36741
          ],
          [
            -21.83255,
            32.37384
          ],
          [
            -21.85084,
            32.38001
          ],
          [
            -21.86925,
            32.38592
          ],
          [
            -21.88777,
            32.39157
          ],
          [
            -21.90641,
            32.39695
          ],
          [
            -21.92515,
            32.40206
          ],
          [
            -21.94399,
            32.4069
          ],
          [
            -21.96292,
            32.41148
          ],
          [
            -21.98194,
            32.41578
          ],
          [
            -22.00105,
            32.41981
          ],
          [
            -22.02024,
            32.42357
          ],
          [
            -22.0395,
            32.42705
          ],
          [
            -22.05882,
            32.43026
          ],
          [
            -22.07821,
            32.43319
          ],
          [
            -22.09765,
            32.43584
          ],
          [
            -22.11714,
            32.43821
          ],
          [
            -22.13668,
            32.44031
          ],
          [
            -22.15626,
            32.44212
          ],
          [
            -22.17587,
            32.44366
          ],
          [
            -22.19551,
            32.44492
          ],
          [
            -22.21517,
            32.44589
          ],
          [
            -22.23485,
            32.44659
          ],
          [
            -22.25454,
            32.447
          ],
          [
            -22.2736,
            32.44713
          ],
          [
            -22.29329,
            32.44699
          ],
          [
            -22.31298,
            32.44657
          ],
          [
            -22.33266,
            32.44587
          ],
          [
            -22.35232,
            32.44488
          ],
          [
            -22.37196,
            32.44362
          ],
          [
            -22.39157,
            32.44207
          ],
          [
            -22.41114,
            32.44024
          ],
          [
            -22.43068,
            32.43814
          ],
          [
            -22.45017,
            32.43576
          ],
          [
            -22.46961,
            32.4331
          ],
          [
            -22.489,
            32.43016
          ],
          [
            -22.50832,
            32.42694
          ],
          [
            -22.52757,
            32.42345
          ],
          [
            -22.54676,
            32.41968
          ],
          [
            -22.56586,
            32.41564
          ],
          [
            -22.58488,
            32.41133
          ],
          [
            -22.60382,
            32.40675
          ],
          [
            -22.62265,
            32.4019
          ],
          [
            -22.64139,
            32.39678
          ],
          [
            -22.66002,
            32.39139
          ],
          [
            -22.67854,
            32.38573
          ],
          [
            -22.69694,
            32.37982
          ],
          [
            -22.71523,
            32.37364
          ],
          [
            -22.73339,
            32.3672
          ],
          [
            -22.75141,
            32.3605
          ],
          [
            -22.7693,
            32.35354
          ],
          [
            -22.78705,
            32.34634
          ],
          [
            -22.80465,
            32.33887
          ],
          [
            -22.8221,
            32.33116
          ],
          [
            -22.83939,
            32.3232
          ],
          [
            -22.85652,
            32.315
          ],
          [
            -22.87348,
            32.30654
          ],
          [
            -22.89027,
            32.29785
          ],
          [
            -22.90689,
            32.28892
          ],
          [
            -22.92332,
            32.27976
          ],
          [
            -22.93957,
            32.27036
          ],
          [
            -22.95563,
            32.26073
          ],
          [
            -23.2258,
            32.0977
          ],
          [
            -23.24163,
            32.08784
          ],
          [
            -23.25727,
            32.07776
          ],
          [
            -23.27271,
            32.06745
          ],
          [
            -23.28794,
            32.05693
          ],
          [
            -23.30295,
            32.04619
          ],
          [
            -23.31775,
            32.03523
          ],
          [
            -23.33233,
            32.02407
          ],
          [
            -23.34669,
            32.01269
          ],
          [
            -23.36082,
            32.00112
          ],
          [
            -23.37472,
            31.98934
          ],
          [
            -23.38838,
            31.97737
          ],
          [
            -23.4018,
            31.9652
          ],
          [
            -23.41498,
            31.95284
          ],
          [
            -23.42791,
            31.9403
          ],
          [
            -23.44059,
            31.92757
          ],
          [
            -23.45302,
            31.91466
          ],
          [
            -23.46519,
            31.90158
          ],
          [
            -23.4771,
            31.88832
          ],
          [
            -23.48874,
            31.8749
          ],
          [
            -23.50012,
            31.86131
          ],
          [
            -23.51123,
            31.84756
          ],
          [
            -23.52206,
            31.83365
          ],
          [
            -23.53262,
            31.81959
          ],
          [
            -23.5429,
            31.80538
          ],
          [
            -24.15437,
            30.95398
          ],
          [
            -24.17075,
            30.94505
          ],
          [
            -24.18695,
            30.93589
          ],
          [
            -24.20297,
            30.92649
          ],
          [
            -24.21881,
            30.91686
          ],
          [
            -24.23445,
            30.90701
          ],
          [
            -24.2499,
            30.89692
          ],
          [
            -24.26515,
            30.88662
          ],
          [
            -24.26619,
            30.88589
          ],
          [
            -24.27231,
            30.87092
          ],
          [
            -24.27869,
            30.85514
          ],
          [
            -24.28501,
            30.83936
          ],
          [
            -24.29128,
            30.82355
          ],
          [
            -24.2975,
            30.80773
          ],
          [
            -24.30366,
            30.7919
          ],
          [
            -24.30977,
            30.77605
          ],
          [
            -24.31583,
            30.76018
          ],
          [
            -24.32183,
            30.7443
          ],
          [
            -24.32777,
            30.7284
          ],
          [
            -24.33366,
            30.71249
          ],
          [
            -24.3395,
            30.69657
          ],
          [
            -24.34528,
            30.68063
          ],
          [
            -24.35101,
            30.66467
          ],
          [
            -24.35668,
            30.6487
          ],
          [
            -24.3623,
            30.63272
          ],
          [
            -24.36786,
            30.61672
          ],
          [
            -24.37337,
            30.60071
          ],
          [
            -24.37883,
            30.58469
          ],
          [
            -24.38423,
            30.56865
          ],
          [
            -24.38958,
            30.5526
          ],
          [
            -24.39487,
            30.53653
          ],
          [
            -24.40011,
            30.52045
          ],
          [
            -24.40529,
            30.50436
          ],
          [
            -24.41042,
            30.48826
          ],
          [
            -24.41549,
            30.47214
          ],
          [
            -24.42051,
            30.45601
          ],
          [
            -24.42547,
            30.43987
          ],
          [
            -24.43038,
            30.42371
          ],
          [
            -24.43524,
            30.40754
          ],
          [
            -24.44004,
            30.39136
          ],
          [
            -24.44478,
            30.37517
          ],
          [
            -24.44947,
            30.35897
          ],
          [
            -24.45411,
            30.34275
          ],
          [
            -24.45869,
            30.32653
          ],
          [
            -24.46321,
            30.31029
          ],
          [
            -24.46768,
            30.29404
          ],
          [
            -24.4721,
            30.27778
          ],
          [
            -24.47646,
            30.26151
          ],
          [
            -24.48077,
            30.24523
          ],
          [
            -24.48502,
            30.22893
          ],
          [
            -24.48922,
            30.21263
          ],
          [
            -24.49336,
            30.19631
          ],
          [
            -24.49745,
            30.17999
          ],
          [
            -24.50148,
            30.16365
          ],
          [
            -24.50546,
            30.14731
          ],
          [
            -24.50938,
            30.13096
          ],
          [
            -24.51325,
            30.11459
          ],
          [
            -24.51706,
            30.09822
          ],
          [
            -24.52082,
            30.08183
          ],
          [
            -24.52452,
            30.06544
          ],
          [
            -24.52817,
            30.04904
          ],
          [
            -24.52846,
            30.04771
          ],
          [
            -24.53037,
            30.03908
          ],
          [
            -24.53364,
            30.0241
          ],
          [
            -24.53718,
            30.00768
          ],
          [
            -24.54067,
            29.99125
          ],
          [
            -24.54409,
            29.97482
          ],
          [
            -24.54747,
            29.95837
          ],
          [
            -24.55079,
            29.94192
          ],
          [
            -24.55405,
            29.92545
          ],
          [
            -24.55726,
            29.90898
          ],
          [
            -24.56042,
            29.8925
          ],
          [
            -24.56351,
            29.87601
          ],
          [
            -24.56656,
            29.85952
          ],
          [
            -24.56955,
            29.84302
          ],
          [
            -24.57248,
            29.82651
          ],
          [
            -24.57536,
            29.80999
          ],
          [
            -24.57819,
            29.79346
          ],
          [
            -24.58096,
            29.77693
          ],
          [
            -24.58367,
            29.76039
          ],
          [
            -24.58634,
            29.74385
          ],
          [
            -24.58894,
            29.7273
          ],
          [
            -24.59149,
            29.71074
          ],
          [
            -24.59399,
            29.69417
          ],
          [
            -24.59487,
            29.68816
          ],
          [
            -24.61778,
            29.51203
          ],
          [
            -24.61967,
            29.49495
          ],
          [
            -24.62145,
            29.47831
          ],
          [
            -24.62318,
            29.46167
          ],
          [
            -24.62485,
            29.44503
          ],
          [
            -24.62647,
            29.42838
          ],
          [
            -24.62804,
            29.41173
          ],
          [
            -24.62955,
            29.39507
          ],
          [
            -24.631,
            29.37841
          ],
          [
            -24.6324,
            29.36175
          ],
          [
            -24.63375,
            29.34508
          ],
          [
            -24.63504,
            29.32841
          ],
          [
            -24.63628,
            29.31174
          ],
          [
            -24.63746,
            29.29506
          ],
          [
            -24.70494,
            28.29791
          ],
          [
            -24.70632,
            28.28125
          ],
          [
            -24.70764,
            28.26458
          ],
          [
            -24.70891,
            28.2479
          ],
          [
            -24.71013,
            28.23123
          ],
          [
            -24.71129,
            28.21455
          ],
          [
            -24.7124,
            28.19786
          ],
          [
            -24.71346,
            28.18118
          ],
          [
            -24.71446,
            28.16449
          ],
          [
            -24.71541,
            28.1478
          ],
          [
            -24.7163,
            28.13111
          ],
          [
            -24.71714,
            28.11441
          ],
          [
            -24.71792,
            28.09772
          ],
          [
            -24.71865,
            28.08102
          ],
          [
            -24.71933,
            28.06432
          ],
          [
            -24.71996,
            28.04761
          ],
          [
            -24.72053,
            28.03091
          ],
          [
            -24.72104,
            28.0142
          ],
          [
            -24.72151,
            27.9975
          ],
          [
            -24.72191,
            27.98079
          ],
          [
            -24.72227,
            27.96408
          ],
          [
            -24.72257,
            27.94737
          ],
          [
            -24.72282,
            27.93066
          ],
          [
            -24.72301,
            27.91395
          ],
          [
            -24.72315,
            27.89724
          ],
          [
            -24.72324,
            27.88052
          ],
          [
            -24.72327,
            27.86381
          ],
          [
            -24.72325,
            27.8471
          ],
          [
            -24.72318,
            27.83039
          ],
          [
            -24.72305,
            27.81368
          ],
          [
            -24.72287,
            27.79696
          ],
          [
            -24.72264,
            27.78025
          ],
          [
            -24.72235,
            27.76354
          ],
          [
            -24.72201,
            27.74683
          ],
          [
            -24.72161,
            27.73012
          ],
          [
            -24.72117,
            27.71342
          ],
          [
            -24.72067,
            27.69671
          ],
          [
            -24.72011,
            27.68
          ],
          [
            -24.71986,
            27.67297
          ],
          [
            -24.33714,
            27.26995
          ],
          [
            -24.41374,
            26.2765
          ],
          [
            -24.26516,
            25.69283
          ],
          [
            -24.25828,
            25.67706
          ],
          [
            -24.25146,
            25.66153
          ],
          [
            -24.24458,
            25.64601
          ],
          [
            -24.23767,
            25.63052
          ],
          [
            -24.2307,
            25.61504
          ],
          [
            -24.22369,
            25.59958
          ],
          [
            -24.21663,
            25.58413
          ],
          [
            -24.20952,
            25.56871
          ],
          [
            -24.20237,
            25.5533
          ],
          [
            -24.19517,
            25.53791
          ],
          [
            -24.18793,
            25.52254
          ],
          [
            -24.18064,
            25.50719
          ],
          [
            -24.1733,
            25.49185
          ],
          [
            -24.16591,
            25.47654
          ],
          [
            -24.15848,
            25.46124
          ],
          [
            -24.15101,
            25.44596
          ],
          [
            -24.14349,
            25.4307
          ],
          [
            -24.13592,
            25.41546
          ],
          [
            -24.1283,
            25.40024
          ],
          [
            -24.12064,
            25.38504
          ],
          [
            -24.11294,
            25.36986
          ],
          [
            -24.10519,
            25.3547
          ],
          [
            -24.09739,
            25.33956
          ],
          [
            -24.08955,
            25.32443
          ],
          [
            -24.08166,
            25.30933
          ],
          [
            -24.07373,
            25.29425
          ],
          [
            -24.06575,
            25.27918
          ],
          [
            -24.05773,
            25.26414
          ],
          [
            -24.04966,
            25.24912
          ],
          [
            -24.04155,
            25.23412
          ],
          [
            -24.03339,
            25.21914
          ],
          [
            -24.02519,
            25.20417
          ],
          [
            -24.01694,
            25.18924
          ],
          [
            -24.00865,
            25.17432
          ],
          [
            -24.00031,
            25.15942
          ],
          [
            -23.99193,
            25.14454
          ],
          [
            -23.9835,
            25.12969
          ],
          [
            -23.97503,
            25.11485
          ],
          [
            -23.96652,
            25.10004
          ],
          [
            -23.95796,
            25.08525
          ],
          [
            -23.94935,
            25.07048
          ],
          [
            -23.94071,
            25.05573
          ],
          [
            -23.93201,
            25.04101
          ],
          [
            -23.92328,
            25.02631
          ],
          [
            -23.9145,
            25.01162
          ],
          [
            -23.90568,
            24.99697
          ],
          [
            -23.89681,
            24.98233
          ],
          [
            -23.8879,
            24.96771
          ],
          [
            -23.87895,
            24.95312
          ],
          [
            -23.86995,
            24.93856
          ],
          [
            -23.86091,
            24.92401
          ],
          [
            -23.85183,
            24.90949
          ],
          [
            -23.8427,
            24.89499
          ],
          [
            -23.83353,
            24.88051
          ],
          [
            -23.82432,
            24.86606
          ],
          [
            -23.81506,
            24.85163
          ],
          [
            -23.80576,
            24.83722
          ],
          [
            -23.79642,
            24.82284
          ],
          [
            -23.78704,
            24.80848
          ],
          [
            -23.77761,
            24.79415
          ],
          [
            -23.76814,
            24.77983
          ],
          [
            -23.75863,
            24.76555
          ],
          [
            -23.74908,
            24.75128
          ],
          [
            -23.73948,
            24.73704
          ],
          [
            -23.72984,
            24.72283
          ],
          [
            -23.72016,
            24.70864
          ],
          [
            -23.71044,
            24.69448
          ],
          [
            -23.70068,
            24.68033
          ],
          [
            -23.69087,
            24.66622
          ],
          [
            -23.68102,
            24.65213
          ],
          [
            -23.67113,
            24.63806
          ],
          [
            -23.6612,
            24.62402
          ],
          [
            -23.65123,
            24.61001
          ],
          [
            -23.64122,
            24.59602
          ],
          [
            -23.63116,
            24.58205
          ],
          [
            -23.62107,
            24.56811
          ],
          [
            -23.61093,
            24.5542
          ],
          [
            -23.60075,
            24.54031
          ],
          [
            -23.59053,
            24.52645
          ],
          [
            -23.58027,
            24.51261
          ],
          [
            -23.56997,
            24.4988
          ],
          [
            -23.55963,
            24.48502
          ],
          [
            -23.54924,
            24.47126
          ],
          [
            -23.53882,
            24.45753
          ],
          [
            -23.52836,
            24.44382
          ],
          [
            -23.51786,
            24.43014
          ],
          [
            -23.50731,
            24.41649
          ],
          [
            -23.49673,
            24.40287
          ],
          [
            -23.4861,
            24.38927
          ],
          [
            -23.47544,
            24.3757
          ],
          [
            -23.46474,
            24.36216
          ],
          [
            -23.45399,
            24.34864
          ],
          [
            -23.44321,
            24.33515
          ],
          [
            -23.43239,
            24.32169
          ],
          [
            -23.42152,
            24.30825
          ],
          [
            -23.41062,
            24.29485
          ],
          [
            -23.39968,
            24.28147
          ],
          [
            -23.3887,
            24.26812
          ],
          [
            -23.37768,
            24.25479
          ],
          [
            -23.36662,
            24.2415
          ],
          [
            -23.35553,
            24.22823
          ],
          [
            -23.34439,
            24.21499
          ],
          [
            -23.33321,
            24.20178
          ],
          [
            -23.322,
            24.1886
          ],
          [
            -23.31075,
            24.17544
          ],
          [
            -23.29946,
            24.16232
          ],
          [
            -23.28813,
            24.14922
          ],
          [
            -23.27676,
            24.13615
          ],
          [
            -23.26535,
            24.12311
          ],
          [
            -23.25391,
            24.1101
          ],
          [
            -23.24243,
            24.09712
          ],
          [
            -23.23091,
            24.08417
          ],
          [
            -23.21935,
            24.07125
          ],
          [
            -23.20776,
            24.05835
          ],
          [
            -23.19613,
            24.04549
          ],
          [
            -23.18445,
            24.03265
          ],
          [
            -23.17275,
            24.01985
          ],
          [
            -23.161,
            24.00708
          ],
          [
            -23.14922,
            23.99433
          ],
          [
            -23.1374,
            23.98162
          ],
          [
            -23.12554,
            23.96893
          ],
          [
            -23.12158,
            23.96471
          ],
          [
            -22.35035,
            23.50568
          ],
          [
            -21.36502,
            23.08341
          ],
          [
            -21.35514,
            23.07034
          ],
          [
            -21.34453,
            23.0568
          ],
          [
            -21.33368,
            23.04343
          ],
          [
            -21.3226,
            23.03022
          ],
          [
            -21.31129,
            23.01718
          ],
          [
            -21.29974,
            23.00432
          ],
          [
            -21.28796,
            22.99164
          ],
          [
            -21.27596,
            22.97914
          ],
          [
            -21.26374,
            22.96683
          ],
          [
            -21.2513,
            22.9547
          ],
          [
            -21.23865,
            22.94277
          ],
          [
            -21.22579,
            22.93104
          ],
          [
            -21.21272,
            22.9195
          ],
          [
            -21.19944,
            22.90817
          ],
          [
            -21.18597,
            22.89704
          ],
          [
            -21.1723,
            22.88612
          ],
          [
            -21.15843,
            22.87541
          ],
          [
            -21.14438,
            22.86491
          ],
          [
            -21.13015,
            22.85463
          ],
          [
            -21.11573,
            22.84458
          ],
          [
            -21.10114,
            22.83474
          ],
          [
            -21.08637,
            22.82513
          ],
          [
            -21.07144,
            22.81575
          ],
          [
            -21.05634,
            22.8066
          ],
          [
            -21.04108,
            22.79768
          ],
          [
            -21.02566,
            22.789
          ],
          [
            -21.01009,
            22.78056
          ],
          [
            -20.99438,
            22.77235
          ],
          [
            -20.97852,
            22.76439
          ],
          [
            -20.96252,
            22.75667
          ],
          [
            -20.94639,
            22.7492
          ],
          [
            -20.93013,
            22.74198
          ],
          [
            -20.91374,
            22.73501
          ],
          [
            -20.89723,
            22.72829
          ],
          [
            -20.8806,
            22.72183
          ],
          [
            -20.86386,
            22.71562
          ],
          [
            -20.84702,
            22.70967
          ],
          [
            -20.83007,
            22.70398
          ],
          [
            -20.81302,
            22.69855
          ],
          [
            -20.79587,
            22.69338
          ],
          [
            -20.77864,
            22.68848
          ],
          [
            -20.76133,
            22.68384
          ],
          [
            -20.74393,
            22.67947
          ],
          [
            -20.72646,
            22.67536
          ],
          [
            -20.70892,
            22.67153
          ],
          [
            -20.69131,
            22.66796
          ],
          [
            -20.67365,
            22.66467
          ],
          [
            -20.65592,
            22.66165
          ],
          [
            -20.63815,
            22.6589
          ],
          [
            -20.62033,
            22.65642
          ],
          [
            -20.60247,
            22.65422
          ],
          [
            -20.58457,
            22.65229
          ],
          [
            -20.56664,
            22.65064
          ],
          [
            -20.54868,
            22.64926
          ],
          [
            -20.5307,
            22.64816
          ],
          [
            -20.51271,
            22.64733
          ],
          [
            -20.4947,
            22.64678
          ],
          [
            -20.47668,
            22.64651
          ],
          [
            -20.45866,
            22.64652
          ],
          [
            -20.44089,
            22.64679
          ]
        ]
      },
      "properties": {
        "slug": "plataforma-continental-canarias",
        "nombre": "Límite exterior de la plataforma continental al oeste de Canarias",
        "categoria": "limite_declarado",
        "descripcion": "Los 448 puntos fijos con los que España trazó, ante la Comisión de Límites de la Plataforma Continental, el límite exterior de su plataforma más allá de las 200 millas al oeste de las Islas Canarias. Es una LÍNEA, no una zona: el documento deposita el borde exterior, no el perímetro completo.",
        "estado_registro": "vigente",
        "verif": "confirmado",
        "geo_precision": "exacta",
        "geo_fuente": "los 448 puntos fijos del Anexo 1 del resumen ejecutivo, en WGS84, redondeados a 5 decimales (§4)",
        "geo_fuente__v": "confirmado",
        "geo_fuente__f": "f1",
        "fecha_alta": "2026-08-06",
        "fecha_verificacion": "2026-08-06",
        "estado_juridico": "Límite depositado por una parte, sin recomendación de la Comisión",
        "estado_juridico__v": "confirmado",
        "estado_juridico__f": "f1",
        "partes": [
          "España",
          "Marruecos",
          "Portugal"
        ],
        "instrumento": "Presentación parcial ante la CLCS, 17 de diciembre de 2014 (CLCS.77.2014.LOS)",
        "claves": [
          {
            "k": "Cómo se trazó",
            "v": "Líneas rectas de no más de 60 millas uniendo 448 puntos fijos, a partir de 29 puntos de pie de talud determinados con sonda multihaz. Las líneas de base son las del Real Decreto 2510/1977.",
            "verif": "confirmado",
            "fuente": "f1"
          },
          {
            "k": "Quién objetó",
            "v": "Marruecos, el 10 de marzo de 2015, y Portugal, el 1 de abril de 2015. La objeción marroquí no discute el trazado técnico: sostiene que recae sobre espacios aún no delimitados.",
            "verif": "confirmado",
            "fuente": "f2"
          },
          {
            "k": "Qué falta",
            "v": "La Comisión no ha emitido recomendaciones sobre esta presentación. Un límite depositado no es un límite reconocido.",
            "verif": "confirmado",
            "fuente": "f1"
          }
        ],
        "fuentes": [
          {
            "id": "f1",
            "tipo": "primaria",
            "titulo": "Reino de España — Resumen ejecutivo de la presentación parcial ante la Comisión de Límites de la Plataforma Continental al oeste de las Islas Canarias (Anexo 1: 448 puntos fijos, WGS84)",
            "url": "https://www.un.org/Depts/los/clcs_new/submissions_files/esp77_14/esp_2014_es.pdf",
            "fecha": "2014-12-17",
            "archivo": "fuentes/2026-08-06_onu_resumen-ejecutivo-plataforma-canarias-2014.pdf"
          },
          {
            "id": "f2",
            "tipo": "primaria",
            "titulo": "Misión Permanente del Reino de Marruecos ante la ONU — Nota verbal NV/ATL/N°/114/2015 sobre la presentación española",
            "url": "https://www.un.org/Depts/los/clcs_new/submissions_files/esp77_14/mor_re_esp77_eng.pdf",
            "fecha": "2015-03-10",
            "archivo": "fuentes/2026-08-06_onu_nota-verbal-marruecos-plataforma-canarias.pdf"
          },
          {
            "id": "f6",
            "tipo": "primaria",
            "titulo": "Real Decreto 2510/1977, de 5 de agosto, sobre trazado de líneas de base rectas (BOE-A-1977-23967)",
            "url": "https://www.boe.es/diario_boe/txt.php?id=BOE-A-1977-23967",
            "fecha": "1977-08-05",
            "archivo": "fuentes/2026-08-06_boe_rd-2510-1977-lineas-de-base-rectas.html"
          }
        ],
        "nota": "Se dibuja atribuido a quien lo deposita, que es lo que D5 permite: un instrumento acredita la posición de una parte, no la razón de nadie. NO se dibuja ninguna línea mediana con Marruecos, porque ningún documento la traza."
      }
    },
    {
      "type": "Feature",
      "id": "espacios-maritimos:contorno-aguas-canarias",
      "geometry": {
        "type": "Polygon",
        "coordinates": [
          [
            [
              -13.525,
              29.40833
            ],
            [
              -13.81667,
              29.03333
            ],
            [
              -15.40833,
              28.17667
            ],
            [
              -16.15833,
              28.59667
            ],
            [
              -17.78,
              28.835
            ],
            [
              -17.91667,
              28.85167
            ],
            [
              -17.96,
              28.82667
            ],
            [
              -18.00833,
              28.775
            ],
            [
              -18.155,
              27.76
            ],
            [
              -18.16333,
              27.70833
            ],
            [
              -17.98333,
              27.63333
            ],
            [
              -16.69333,
              28.0
            ],
            [
              -15.66833,
              27.74167
            ],
            [
              -15.58333,
              27.73333
            ],
            [
              -14.325,
              28.04167
            ],
            [
              -13.93333,
              28.23
            ],
            [
              -13.89667,
              28.27
            ],
            [
              -13.46333,
              29.025
            ],
            [
              -13.33333,
              29.275
            ],
            [
              -13.49,
              29.40167
            ],
            [
              -13.525,
              29.40833
            ]
          ]
        ]
      },
      "properties": {
        "slug": "contorno-aguas-canarias",
        "nombre": "Contorno perimetral de las aguas canarias",
        "categoria": "limite_declarado",
        "descripcion": "El perímetro que la Ley 44/2010 traza entre los puntos extremos del archipiélago. La ley designa como «aguas canarias» las de su interior y las declara ámbito marítimo propio de la comunidad autónoma.",
        "estado_registro": "vigente",
        "verif": "confirmado",
        "geo_precision": "exacta",
        "geo_fuente": "los 20 puntos extremos del Anexo I de la Ley 44/2010, en grados y minutos decimales tomados de la carta náutica española 209",
        "geo_fuente__v": "confirmado",
        "geo_fuente__f": "f5",
        "fecha_alta": "2026-08-06",
        "fecha_verificacion": "2026-08-06",
        "estado_juridico": "Contorno interno declarado por ley, sin efecto sobre la delimitación exterior",
        "estado_juridico__v": "confirmado",
        "estado_juridico__f": "f5",
        "partes": [
          "España",
          "Marruecos"
        ],
        "instrumento": "Ley 44/2010, de 30 de diciembre, de aguas canarias",
        "claves": [
          {
            "k": "Lo que la propia ley se prohíbe",
            "v": "Su disposición adicional única: «El trazado del contorno perimetral no alterará la delimitación de los espacios marítimos […] tal y como están establecidos por el ordenamiento jurídico español en virtud del Derecho Internacional vigente».",
            "verif": "confirmado",
            "fuente": "f5"
          },
          {
            "k": "La reserva marroquí",
            "v": "Marruecos declara haber notificado a España sus reservas sobre la interpretación que esta ley hace de la Parte IV de la Convención, relativa a los archipiélagos.",
            "verif": "confirmado",
            "fuente": "f2"
          },
          {
            "k": "Y la respuesta española",
            "v": "«La Ley 44/2010 no define líneas de base y no ha sido en modo alguno empleada en la elaboración de la Presentación sobre los límites de la Plataforma Continental al Oeste de las Islas Canarias».",
            "verif": "confirmado",
            "fuente": "f3"
          }
        ],
        "fuentes": [
          {
            "id": "f5",
            "tipo": "primaria",
            "titulo": "Ley 44/2010, de 30 de diciembre, de aguas canarias (BOE, texto consolidado; Anexo I y disposición adicional única)",
            "url": "https://www.boe.es/buscar/act.php?id=BOE-A-2010-20140",
            "fecha": "2010-12-31",
            "archivo": "fuentes/2026-08-06_boe_ley-44-2010-aguas-canarias.html"
          },
          {
            "id": "f2",
            "tipo": "primaria",
            "titulo": "Misión Permanente del Reino de Marruecos ante la ONU — Nota verbal NV/ATL/N°/114/2015 sobre la presentación española",
            "url": "https://www.un.org/Depts/los/clcs_new/submissions_files/esp77_14/mor_re_esp77_eng.pdf",
            "fecha": "2015-03-10",
            "archivo": "fuentes/2026-08-06_onu_nota-verbal-marruecos-plataforma-canarias.pdf"
          },
          {
            "id": "f3",
            "tipo": "primaria",
            "titulo": "Misión Permanente de España ante la ONU — Nota verbal n.º 076 MP/bcm, respuesta a la nota marroquí",
            "url": "https://www.un.org/Depts/los/clcs_new/submissions_files/esp77_14/prt_remar_esp77_spa.pdf",
            "fecha": "2015-04-22",
            "archivo": "fuentes/2026-08-06_onu_respuesta-espana-a-marruecos-clcs.pdf"
          }
        ],
        "nota": "Está aquí porque es el instrumento que la nota marroquí nombra por su número, no porque sustente la plataforma continental: España dice expresamente que no la sustenta. Las tres claves cuentan justo eso — el desacuerdo no es sobre dónde va una línea, sino sobre qué instrumento aplica."
      }
    },
    {
      "type": "Feature",
      "id": "espacios-maritimos:monte-tropic",
      "geometry": {
        "type": "Point",
        "coordinates": [
          -20.66667,
          23.83333
        ]
      },
      "properties": {
        "slug": "monte-tropic",
        "nombre": "Monte Tropic",
        "categoria": "recurso_afectado",
        "descripcion": "Monte submarino de la provincia de montes de Canarias, registrado con ese nombre en el gazetteer de la Organización Hidrográfica Internacional. Sus costras de ferromanganeso son el motivo por el que aparece en cualquier discusión sobre los fondos del suroeste canario.",
        "estado_registro": "vigente",
        "verif": "parcial",
        "geo_precision": "paraje",
        "geo_fuente": "posición registrada del accidente «Tropic» (Seamount, FEATURE_ID 3176) en el gazetteer GEBCO/SCUFN; es la posición del NOMBRE, no el perímetro del monte, que tiene decenas de kilómetros",
        "geo_fuente__v": "confirmado",
        "geo_fuente__f": "f7",
        "fecha_alta": "2026-08-06",
        "fecha_verificacion": "2026-08-06",
        "estado_juridico": "En el área que cubre la presentación española y que Marruecos objeta",
        "estado_juridico__v": "parcial",
        "estado_juridico__f": "f1",
        "partes": [
          "España",
          "Marruecos"
        ],
        "claves": [
          {
            "k": "Nombre registrado",
            "v": "«Tropic», tipo Seamount, identificador 3176 del gazetteer GEBCO/SCUFN (OHI-COI).",
            "verif": "confirmado",
            "fuente": "f7"
          }
        ],
        "fuentes": [
          {
            "id": "f7",
            "tipo": "primaria",
            "titulo": "GEBCO Gazetteer of Undersea Feature Names (IHO-COI, SCUFN) — «Tropic», Seamount, FEATURE_ID 3176",
            "url": "https://www.ngdc.noaa.gov/gazetteer/",
            "fecha": "2026-08-06",
            "archivo": "fuentes/2026-08-06_gebco_gazetteer-monte-tropic.json"
          },
          {
            "id": "f1",
            "tipo": "primaria",
            "titulo": "Reino de España — Resumen ejecutivo de la presentación parcial ante la Comisión de Límites de la Plataforma Continental al oeste de las Islas Canarias (Anexo 1: 448 puntos fijos, WGS84)",
            "url": "https://www.un.org/Depts/los/clcs_new/submissions_files/esp77_14/esp_2014_es.pdf",
            "fecha": "2014-12-17",
            "archivo": "fuentes/2026-08-06_onu_resumen-ejecutivo-plataforma-canarias-2014.pdf"
          },
          {
            "id": "f8",
            "tipo": "hueco",
            "titulo": "Sin instrumento archivado que sitúe el monte dentro o fuera de una reclamación concreta, y sin fuente primaria de la ley de sus costras: las cifras de telurio y cobalto que circulan vienen de campañas científicas que este atlas no ha archivado."
          }
        ],
        "nota": "El atlas registra dónde está y cómo se llama, con la autoridad que lo nombra. NO afirma cuánto telurio ni cuánto cobalto hay: esas cifras vienen de campañas científicas que este atlas no ha archivado, y una ley de yacimiento sin fuente primaria es exactamente el hueco que el principio 1 manda declarar. Tampoco afirma que caiga dentro de la reclamación de nadie — dice el área que la presentación cubre, que es lo que el documento sostiene."
      }
    }
  ]
}
