{
  "type": "FeatureCollection",
  "atlas": { "capa": "minerales-proyectos", "schema_version": "1.1.0", "verificado_a": "2026-08-05" },
  "features": [
    {
      "type": "Feature",
      "id": "minerales-proyectos:viaje-en-el-tiempo",
      "geometry": { "type": "Point", "coordinates": [-6.2708, 38.0805] },
      "properties": {
        "slug": "viaje-en-el-tiempo",
        "nombre": "Verificado antes de existir, con fuente del futuro",
        "categoria": "estrategico_ue",
        "estado_registro": "vigente",
        "verif": "parcial",
        "geo_precision": "municipio",
        "fecha_alta": "2026-08-05",
        "fecha_verificacion": "2026-07-01",
        "materias": ["niquel"],
        "tipo_proyecto": ["extraccion"],
        "municipio": "Monesterio",
        "provincia": "Badajoz",
        "fase": "desarrollo",
        "fuentes": [
          { "id": "f1", "tipo": "primaria", "titulo": "Documento oficial", "fecha": "2099-01-01" }
        ],
        "nota": "VIOLA §7.5, dos veces. Se verificó un mes antes de darse de alta, y cita un documento de 2099. Ambos son el mismo error real: copiar una ficha vieja y cambiar unos campos sí y otros no."
      }
    }
  ]
}
