{
  "type": "FeatureCollection",
  "atlas": { "capa": "minerales-proyectos", "schema_version": "1.1.0", "verificado_a": "2026-08-05" },
  "features": [
    {
      "type": "Feature",
      "id": "minerales-proyectos:activo-a-mano",
      "geometry": { "type": "Point", "coordinates": [-6.2708, 38.0805] },
      "properties": {
        "slug": "activo-a-mano",
        "nombre": "El booleano que contradice al dato",
        "categoria": "estrategico_ue",
        "estado_registro": "vigente",
        "verif": "parcial",
        "geo_precision": "municipio",
        "fecha_alta": "2026-08-05",
        "fecha_verificacion": "2026-08-05",
        "materias": ["niquel"],
        "tipo_proyecto": ["extraccion"],
        "municipio": "Monesterio",
        "provincia": "Badajoz",
        "fase": "tramitacion",
        "activo": true,
        "fuentes": [
          { "id": "f1", "tipo": "primaria", "titulo": "Documento oficial", "fecha": "2025-03-25" }
        ],
        "nota": "VIOLA R7, y de la peor manera posible: `fase` dice «en tramitación» y el `activo` escrito a mano dice «sí, está produciendo». Justo la contradicción que D3 previó cuando descartó el booleano editable. `activo` se deriva de `fase` (§6.5) y no se escribe nunca."
      }
    }
  ]
}
