{
  "type": "FeatureCollection",
  "atlas": {
    "capa": "minerales-proyectos",
    "schema_version": "1.3.0",
    "verificado_a": "2026-08-05"
  },
  "features": [
    {
      "type": "Feature",
      "id": "minerales-proyectos:aguablanca",
      "geometry": { "type": "Point", "coordinates": [-6.2708, 38.0805] },
      "properties": {
        "slug": "aguablanca",
        "nombre": "Aguablanca",
        "categoria": "estrategico_ue",
        "descripcion": "Reactivación del único yacimiento de níquel explotado en España.",
        "estado_registro": "vigente",
        "verif": "confirmado",
        "geo_precision": "exacta",
        "geo_fuente": "coordenada de la bocamina",
        "fecha_alta": "2026-07-22",
        "fecha_verificacion": "2026-07-22",
        "materias": ["niquel", "cobre", "cobalto", "pgm"],
        "tipo_proyecto": ["extraccion"],
        "municipio": "Monesterio",
        "provincia": "Badajoz",
        "promotor": "Río Narcea Recursos",
        "promotor__v": "parcial",
        "promotor__f": "f2",
        "fase": "desarrollo",
        "fase__v": "parcial",
        "fase__f": "f1",
        "estado_proyecto": "Reactivación en curso",
        "estado_proyecto__v": "parcial",
        "estado_proyecto__f": "f1",
        "estado_proyecto_fecha": "2025-03-25",
        "claves": [],
        "fuentes": [
          {
            "id": "f1",
            "tipo": "primaria",
            "titulo": "Comisión Europea — Decisión de la 1ª lista de Proyectos Estratégicos CRMA, con su anexo",
            "fecha": "2025-03-25"
          },
          {
            "id": "f2",
            "tipo": "prensa",
            "titulo": "elEconomista — Quién está detrás de los 7 proyectos",
            "fecha": "2025-03-31"
          }
        ],
        "nota": "VIOLA R9. Declara «geo_precision: exacta» y describe la geometría en prosa, pero no dice qué fuente la sostiene: falta «geo_fuente__f». Es el fallo más fácil de cometer de todo el contrato, porque no parece un fallo — la prosa suena precisa y el número tiene cinco decimales. Este registro tiene una fuente primaria (f1), así que el problema no es que no haya cita disponible: es que la geometría no la invoca. La coordenada es la misma que en «valido.geojson», donde va declarada como «municipio» y pasa en verde. Lo que rompe el contrato no es el número: es la promesa."
      }
    }
  ]
}
